OBJECT_NAME,OBJECT_ID,EPOCH,MEAN_MOTION,ECCENTRICITY,INCLINATION,RA_OF_ASC_NODE,ARG_OF_PERICENTER,MEAN_ANOMALY,EPHEMERIS_TYPE,CLASSIFICATION_TYPE,NORAD_CAT_ID,ELEMENT_SET_NO,REV_AT_EPOCH,BSTAR,MEAN_MOTION_DOT,MEAN_MOTION_DDOT
ASTRA 2E,2013-056A,2026-06-25T19:34:43.214016,1.00270431,.0002546,0.0634,327.9208,134.0253,134.1674,0,U,39285,999,4650,0,.161E-5,0
FM-6,2013-058A,2026-06-25T15:27:45.066240,1.00271100,.0001623,0.0158,48.8208,131.9588,208.6381,0,U,39360,999,4615,0,-.6E-7,0
RADUGA-1M 3,2013-062A,2026-06-25T19:36:35.534880,1.00273832,.0001619,5.9799,72.2464,279.2533,251.5824,0,U,39375,999,4619,0,.158E-5,0
SES-8,2013-071A,2026-06-25T18:11:02.529024,1.00272516,.0003021,0.0346,277.9144,175.9344,187.8025,0,U,39460,999,4451,0,-.259E-5,0
INMARSAT 5-F1,2013-073A,2026-06-25T00:57:21.947040,1.00267228,.0000794,0.0177,21.8643,321.8374,6.4461,0,U,39476,999,4565,0,.38E-6,0
TKSAT-1 (TUPAC KATARI),2013-075A,2026-06-25T15:36:21.739104,1.00272593,.0002824,0.0447,182.5390,264.1323,334.0129,0,U,39481,999,4568,0,-.184E-5,0
EXPRESS-AM5,2013-077A,2026-06-25T14:58:40.353024,1.00271913,.0000321,0.0135,298.6001,96.8527,243.0064,0,U,39487,999,4644,0,-.27E-5,0
GSAT-14,2014-001A,2026-06-25T19:47:44.198304,1.00272183,.0000602,0.0561,94.7522,142.4533,47.6685,0,U,39498,999,4546,0,-.66E-6,0
THAICOM 6,2014-002A,2026-06-25T19:49:06.566016,1.00273651,.0004715,0.0502,124.2468,348.5968,176.9196,0,U,39500,999,4554,0,-.111E-5,0
TDRS 12,2014-004A,2026-06-25T19:14:53.820384,1.00264760,.000316,3.9857,19.2440,187.3981,314.8271,0,U,39504,999,4436,0,-.264E-5,0
ABS-2,2014-006A,2026-06-25T19:47:59.174016,1.00272054,.0003998,0.0190,14.0628,65.0837,206.7184,0,U,39508,999,4536,0,-.75E-6,0
ATHENA-FIDUS,2014-006B,2026-06-25T19:37:27.952032,1.00273745,.0001645,0.0212,61.2330,25.7530,159.1306,0,U,39509,999,4517,0,.165E-5,0
TURKSAT 4A,2014-007A,2026-06-25T08:38:38.566176,1.00271645,.000061,0.0554,293.7443,6.1760,145.2232,0,U,39522,999,4505,0,.156E-5,0
EXPRESS-AT1,2014-010A,2026-06-25T18:02:01.443840,1.00306187,.0004256,0.2803,85.6445,42.3360,119.7577,0,U,39612,999,4490,0,.25E-6,0
EXPRESS-AT2,2014-010B,2026-06-25T17:59:54.148128,1.00272261,.0000186,0.0140,336.8174,322.9097,300.1319,0,U,39613,999,4458,0,.89E-6,0
AMAZONAS 4A,2014-011A,2026-06-25T12:14:53.983392,1.00271725,.0004278,0.0588,168.4600,306.3361,268.5812,0,U,39616,999,4479,0,-.242E-5,0
ASTRA 5B,2014-011B,2026-06-25T19:33:20.847168,1.00272025,.0002206,0.0542,322.9374,114.4652,153.3488,0,U,39617,999,4475,0,.148E-5,0
IRNSS-1B,2014-017A,2026-06-22T18:08:03.866784,1.00268591,.00234964,28.9065,240.3095,164.9008,193.0039,0,U,39635,999,4484,0,.117E-5,0
LUCH-5V,2014-023A,2026-06-25T18:10:55.040736,1.00272155,.0002402,5.1544,69.6639,47.9726,163.7407,0,U,39727,999,4444,0,-.263E-5,0
KAZSAT-3,2014-023B,2026-06-25T06:01:59.638080,1.00270949,.0000336,0.0100,3.9050,115.8455,302.6420,0,U,39728,999,4253,0,.7E-6,0
EUTELSAT 3B,2014-030A,2026-06-25T19:27:36.398016,1.00270455,.0004248,0.0604,351.4467,101.1950,116.3004,0,U,39773,999,4415,0,.3E-6,0
ASIASAT 8 (AMOS-7),2014-046A,2026-06-25T19:56:43.336032,1.00270568,.0001694,0.0396,78.9039,22.3711,217.1768,0,U,40107,999,10223,0,-.322E-5,0
ASIASAT 6,2014-052A,2026-06-25T18:18:09.346752,1.00268534,.0001043,0.0448,268.3353,200.0286,199.9526,0,U,40141,999,4316,0,-.351E-5,0
OPTUS 10,2014-054A,2026-06-25T19:43:38.666784,1.00270907,.0002121,0.1139,5.9663,87.9292,271.9857,0,U,40146,999,4311,0,-.137E-5,0
MEASAT-3B,2014-054B,2026-06-25T18:10:02.625312,1.00270555,.0002959,0.0417,46.0389,22.7241,209.1491,0,U,40147,999,4299,0,-.231E-5,0
HIMAWARI-8,2014-060A,2026-06-25T20:06:42.379200,1.00270784,.0001531,0.0156,307.2557,150.3987,258.6406,0,U,40267,999,4284,0,-.265E-5,0
IRNSS-1C,2014-061A,2026-06-25T16:24:56.461248,1.00267985,.0022592,6.5386,88.7700,3.4967,150.6688,0,U,40269,999,4277,0,-.155E-5,0
INTELSAT 30 (IS-30),2014-062A,2026-06-25T08:43:33.617856,1.00272157,.0001489,0.0269,55.6231,338.6494,275.0652,0,U,40271,999,687,0,-.141E-5,0
ARSAT 1,2014-062B,2026-06-25T14:57:45.273888,1.00271776,.000205,0.0202,317.9328,130.4005,338.0613,0,U,40272,999,4270,0,-.249E-5,0
EUTELSAT 53A,2014-064A,2026-06-25T17:59:01.731840,1.00272103,.0001136,0.0153,319.0972,218.7057,58.8428,0,U,40277,999,4165,0,.108E-5,0
GSAT-16,2014-078A,2026-06-25T17:59:39.172416,1.00273448,.0008044,0.0596,267.5644,176.4496,154.8424,0,U,40332,999,4219,0,.95E-6,0
DIRECTV 14,2014-078B,2026-06-25T08:42:18.739296,1.00272630,.0000354,0.0098,19.2836,6.4271,279.1338,0,U,40333,999,4212,0,-.116E-5,0
