ASTRA 2E                
1 39285U 13056A   26176.81577794  .00000161  00000+0  00000+0 0  9998
2 39285   0.0634 327.9208 0002546 134.0253 134.1674  1.00270431 46507
FM-6                    
1 39360U 13058A   26176.64427160 -.00000006  00000+0  00000+0 0  9995
2 39360   0.0158  48.8208 0001623 131.9588 208.6381  1.00271100 46150
RADUGA-1M 3             
1 39375U 13062A   26176.81707795  .00000158  00000+0  00000+0 0  9997
2 39375   5.9799  72.2464 0001619 279.2533 251.5824  1.00273832 46194
SES-8                   
1 39460U 13071A   26176.75766816 -.00000259  00000+0  00000+0 0  9997
2 39460   0.0346 277.9144 0003021 175.9344 187.8025  1.00272516 44519
INMARSAT 5-F1           
1 39476U 13073A   26176.03983735  .00000038  00000+0  00000+0 0  9992
2 39476   0.0177  21.8643 0000794 321.8374   6.4461  1.00267228 45657
TKSAT-1 (TUPAC KATARI)  
1 39481U 13075A   26176.65025161 -.00000184  00000+0  00000+0 0  9991
2 39481   0.0447 182.5390 0002824 264.1323 334.0129  1.00272593 45681
EXPRESS-AM5             
1 39487U 13077A   26176.62407816 -.00000270  00000+0  00000+0 0  9993
2 39487   0.0135 298.6001 0000321  96.8527 243.0064  1.00271913 46442
GSAT-14                 
1 39498U 14001A   26176.82481711 -.00000066  00000+0  00000+0 0  9994
2 39498   0.0561  94.7522 0000602 142.4533  47.6685  1.00272183 45465
THAICOM 6               
1 39500U 14002A   26176.82577044 -.00000111  00000+0  00000+0 0  9995
2 39500   0.0502 124.2468 0004715 348.5968 176.9196  1.00273651 45545
TDRS 12                 
1 39504U 14004A   26176.80201181 -.00000264  00000+0  00000+0 0  9994
2 39504   3.9857  19.2440 0003160 187.3981 314.8271  1.00264760 44361
ABS-2                   
1 39508U 14006A   26176.82499044 -.00000075  00000+0  00000+0 0  9999
2 39508   0.0190  14.0628 0003998  65.0837 206.7184  1.00272054 45363
ATHENA-FIDUS            
1 39509U 14006B   26176.81768463  .00000165  00000+0  00000+0 0  9992
2 39509   0.0212  61.2330 0001645  25.7530 159.1306  1.00273745 45177
TURKSAT 4A              
1 39522U 14007A   26176.36016859  .00000156  00000+0  00000+0 0  9993
2 39522   0.0554 293.7443 0000610   6.1760 145.2232  1.00271645 45055
EXPRESS-AT1             
1 39612U 14010A   26176.75140560  .00000025  00000+0  00000+0 0  9992
2 39612   0.2803  85.6445 0004256  42.3360 119.7577  1.00306187 44903
EXPRESS-AT2             
1 39613U 14010B   26176.74993227  .00000089  00000+0  00000+0 0  9998
2 39613   0.0140 336.8174 0000186 322.9097 300.1319  1.00272261 44587
AMAZONAS 4A             
1 39616U 14011A   26176.51034703 -.00000242  00000+0  00000+0 0  9994
2 39616   0.0588 168.4600 0004278 306.3361 268.5812  1.00271725 44797
ASTRA 5B                
1 39617U 14011B   26176.81482462  .00000148  00000+0  00000+0 0  9991
2 39617   0.0542 322.9374 0002206 114.4652 153.3488  1.00272025 44753
IRNSS-1B                
1 39635U 14017A   26173.75560031  .00000117  00000+0  00000+0 0  9992
2 39635  28.9065 240.3095 0023496 164.9008 193.0039  1.00268591 44840
LUCH-5V                 
1 39727U 14023A   26176.75758149 -.00000263  00000+0  00000+0 0  9996
2 39727   5.1544  69.6639 0002402  47.9726 163.7407  1.00272155 44448
KAZSAT-3                
1 39728U 14023B   26176.25138470  .00000070  00000+0  00000+0 0  9996
2 39728   0.0100   3.9050 0000336 115.8455 302.6420  1.00270949 42533
EUTELSAT 3B             
1 39773U 14030A   26176.81083794  .00000030  00000+0  00000+0 0  9990
2 39773   0.0604 351.4467 0004248 101.1950 116.3004  1.00270455 44159
ASIASAT 8 (AMOS-7)      
1 40107U 14046A   26176.83105713 -.00000322  00000+0  00000+0 0  9993
2 40107   0.0396  78.9039 0001694  22.3711 217.1768  1.00270568102233
ASIASAT 6               
1 40141U 14052A   26176.76260818 -.00000351  00000+0  00000+0 0  9990
2 40141   0.0448 268.3353 0001043 200.0286 199.9526  1.00268534 43168
OPTUS 10                
1 40146U 14054A   26176.82197531 -.00000137  00000+0  00000+0 0  9997
2 40146   0.1139   5.9663 0002121  87.9292 271.9857  1.00270907 43117
MEASAT-3B               
1 40147U 14054B   26176.75697483 -.00000231  00000+0  00000+0 0  9996
2 40147   0.0417  46.0389 0002959  22.7241 209.1491  1.00270555 42998
HIMAWARI-8              
1 40267U 14060A   26176.83799050 -.00000265  00000+0  00000+0 0  9995
2 40267   0.0156 307.2557 0001531 150.3987 258.6406  1.00270784 42843
IRNSS-1C                
1 40269U 14061A   26176.68398682 -.00000155  00000+0  00000+0 0  9995
2 40269   6.5386  88.7700 0022592   3.4967 150.6688  1.00267985 42772
INTELSAT 30 (IS-30)     
1 40271U 14062A   26176.36358354 -.00000141  00000+0  00000+0 0  9991
2 40271   0.0269  55.6231 0001489 338.6494 275.0652  1.00272157  6877
ARSAT 1                 
1 40272U 14062B   26176.62344067 -.00000249  00000+0  00000+0 0  9996
2 40272   0.0202 317.9328 0002050 130.4005 338.0613  1.00271776 42702
EUTELSAT 53A            
1 40277U 14064A   26176.74932560  .00000108  00000+0  00000+0 0  9990
2 40277   0.0153 319.0972 0001136 218.7057  58.8428  1.00272103 41650
GSAT-16                 
1 40332U 14078A   26176.74975894  .00000095  00000+0  00000+0 0  9999
2 40332   0.0596 267.5644 0008044 176.4496 154.8424  1.00273448 42194
DIRECTV 14              
1 40333U 14078B   26176.36271689 -.00000116  00000+0  00000+0 0  9994
2 40333   0.0098  19.2836 0000354   6.4271 279.1338  1.00272630 42126
